ORBCOMM FM20 [+]        
1 25416U 98046D   23344.25525803  .00000755  00000+0  31390-3 0  9996
2 25416  44.9956 283.6845 0002067 316.5459  43.5225 14.34680848324502
ORBCOMM FM16 [-]        
1 25417U 98046E   23345.90711363  .00000836  00000+0  33693-3 0  9996
2 25417  44.9951 272.6718 0004676  18.4419 341.6597 14.35461419324660
ORBCOMM FM15 [-]        
1 25418U 98046F   23345.48842293  .00000950  00000+0  37794-3 0  9990
2 25418  44.9986 278.3703 0004249  15.8862 344.2118 14.35215097324785
ORBCOMM FM14 [-]        
1 25419U 98046G   23344.99535302  .00000954  00000+0  37843-3 0  9995
2 25419  44.9978 279.9869 0003437 355.0708 130.2332 14.35333609324492
ORBCOMM FM13 [+]        
1 25420U 98046H   23344.18215170  .00000902  00000+0  36471-3 0  9995
2 25420  44.9990 287.9234 0005665 358.1072   1.9753 14.34743461323452
ORBCOMM FM21 [-]        
1 25475U 98053A   23344.47796732  .00000672  00000+0  28433-3 0  9996
2 25475  45.0105  10.6768 0002357 275.5051  84.5527 14.34742801317512
ORBCOMM FM22 [-]        
1 25476U 98053B   23345.96644234  .00000820  00000+0  33346-3 0  9995
2 25476  45.0104   1.4847 0003955 301.3884  58.6577 14.35150503318077
ORBCOMM FM23 [-]        
1 25477U 98053C   23345.90099558  .00000716  00000+0  29991-3 0  9998
2 25477  45.0108   6.4165 0003302 292.9696  67.0803 14.34738542317868
